[{"OBJECT_NAME":"STARLINK-3184","OBJECT_ID":"2022-005AR","EPOCH":"2026-03-09T22:49:37.787520","MEAN_MOTION":15.08832675,"ECCENTRICITY":0.00014218,"INCLINATION":53.2186,"RA_OF_ASC_NODE":307.9465,"ARG_OF_PERICENTER":92.1976,"MEAN_ANOMALY":267.9179,"EPHEMERIS_TYPE":0,"CLASSIFICATION_TYPE":"U","NORAD_CAT_ID":51143,"ELEMENT_SET_NO":999,"REV_AT_EPOCH":22863,"BSTAR":5.6323526e-5,"MEAN_MOTION_DOT":6.08e-6,"MEAN_MOTION_DDOT":0},{"OBJECT_NAME":"CZ-4B DEB","OBJECT_ID":"2004-035J","EPOCH":"2026-03-07T20:16:16.859712","MEAN_MOTION":15.09572175,"ECCENTRICITY":0.00105031,"INCLINATION":97.5432,"RA_OF_ASC_NODE":82.067,"ARG_OF_PERICENTER":356.2804,"MEAN_ANOMALY":3.8346,"EPHEMERIS_TYPE":0,"CLASSIFICATION_TYPE":"U","NORAD_CAT_ID":29042,"ELEMENT_SET_NO":999,"REV_AT_EPOCH":69625,"BSTAR":0.00031812935,"MEAN_MOTION_DOT":5.052e-5,"MEAN_MOTION_DDOT":0}]
